{
  "type": "FeatureCollection",
  "features": [
    {
      "type": "Feature",
      "properties": {
        "norad_id": 41581,
        "name": "INTELSAT 31 (IS-31)",
        "group": "intelsat",
        "lat": -0.015976997929999303,
        "lon": 160.9766128799625,
        "alt_km": 35781.23021117567,
        "timestamp": "2025-12-12T11:38:31.084117+00:00",
        "meta_object_name": "INTELSAT 31 (IS-31)",
        "meta_object_id": "2016-035A",
        "meta_epoch": "2025-12-11T21:37:13.469376",
        "meta_mean_motion": 1.00272085,
        "meta_eccentricity": 0.0001989,
        "meta_inclination": 0.0172,
        "meta_ra_of_asc_node": 268.6419,
        "meta_arg_of_pericenter": 307.2662,
        "meta_mean_anomaly": 94.1931,
        "meta_ephemeris_type": 0,
        "meta_classification_type": "U",
        "meta_norad_cat_id": 41581,
        "meta_element_set_no": 999,
        "meta_rev_at_epoch": 3480,
        "meta_bstar": 0,
        "meta_mean_motion_dot": -1.42e-06,
        "meta_mean_motion_ddot": 0,
        "tle_line1": "1 41581U 16035A   25345.90085034 -.00000142  00000+0  00000+0 0  9998",
        "tle_line2": "2 41581   0.0172 268.6419 0001989 307.2662  94.1931  1.00272085 34807"
      },
      "geometry": {
        "type": "Point",
        "coordinates": [
          160.9766128799625,
          -0.015976997929999303
        ]
      }
    },
    {
      "type": "Feature",
      "properties": {
        "norad_id": 41747,
        "name": "INTELSAT 36 (IS-36)",
        "group": "intelsat",
        "lat": -0.016676113127145984,
        "lon": -35.46545976311052,
        "alt_km": 35779.4485744307,
        "timestamp": "2025-12-12T11:38:31.084129+00:00",
        "meta_object_name": "INTELSAT 36 (IS-36)",
        "meta_object_id": "2016-053A",
        "meta_epoch": "2025-12-11T19:58:55.649856",
        "meta_mean_motion": 1.00270488,
        "meta_eccentricity": 0.00016639,
        "meta_inclination": 0.0144,
        "meta_ra_of_asc_node": 14.364,
        "meta_arg_of_pericenter": 313.5424,
        "meta_mean_anomaly": 121.097,
        "meta_ephemeris_type": 0,
        "meta_classification_type": "U",
        "meta_norad_cat_id": 41747,
        "meta_element_set_no": 999,
        "meta_rev_at_epoch": 3407,
        "meta_bstar": 0,
        "meta_mean_motion_dot": -1.6e-07,
        "meta_mean_motion_ddot": 0,
        "tle_line1": "1 41747U 16053A   25345.83258854 -.00000016  00000+0  00000+0 0  9996",
        "tle_line2": "2 41747   0.0144  14.3640 0001663 313.5424 121.0970  1.00270488 34074"
      },
      "geometry": {
        "type": "Point",
        "coordinates": [
          -35.46545976311052,
          -0.016676113127145984
        ]
      }
    },
    {
      "type": "Feature",
      "properties": {
        "norad_id": 41945,
        "name": "INTELSAT 32E (IS-32E)",
        "group": "intelsat",
        "lat": 0.00861356286909518,
        "lon": -147.14081017550038,
        "alt_km": 35788.801543809706,
        "timestamp": "2025-12-12T11:38:31.084140+00:00",
        "meta_object_name": "INTELSAT 32E (IS-32E)",
        "meta_object_id": "2017-007B",
        "meta_epoch": "2025-12-12T03:00:09.758880",
        "meta_mean_motion": 1.00269838,
        "meta_eccentricity": 5.76e-05,
        "meta_inclination": 0.0368,
        "meta_ra_of_asc_node": 83.1087,
        "meta_arg_of_pericenter": 281.5058,
        "meta_mean_anomaly": 78.3124,
        "meta_ephemeris_type": 0,
        "meta_classification_type": "U",
        "meta_norad_cat_id": 41945,
        "meta_element_set_no": 999,
        "meta_rev_at_epoch": 3234,
        "meta_bstar": 0,
        "meta_mean_motion_dot": -2.6e-06,
        "meta_mean_motion_ddot": 0,
        "tle_line1": "1 41945U 17007B   25346.12511295 -.00000260  00000+0  00000+0 0  9991",
        "tle_line2": "2 41945   0.0368  83.1087 0000576 281.5058  78.3124  1.00269838 32340"
      },
      "geometry": {
        "type": "Point",
        "coordinates": [
          -147.14081017550038,
          0.00861356286909518
        ]
      }
    },
    {
      "type": "Feature",
      "properties": {
        "norad_id": 42818,
        "name": "INTELSAT 35E (IS-35E)",
        "group": "intelsat",
        "lat": -0.0254365333789315,
        "lon": -138.46201180960216,
        "alt_km": 35778.840467587244,
        "timestamp": "2025-12-12T11:38:31.084152+00:00",
        "meta_object_name": "INTELSAT 35E (IS-35E)",
        "meta_object_id": "2017-041A",
        "meta_epoch": "2025-12-12T03:02:39.521184",
        "meta_mean_motion": 1.00273544,
        "meta_eccentricity": 0.0002085,
        "meta_inclination": 0.0182,
        "meta_ra_of_asc_node": 4.6689,
        "meta_arg_of_pericenter": 256.6606,
        "meta_mean_anomaly": 190.9094,
        "meta_ephemeris_type": 0,
        "meta_classification_type": "U",
        "meta_norad_cat_id": 42818,
        "meta_element_set_no": 999,
        "meta_rev_at_epoch": 3094,
        "meta_bstar": 0,
        "meta_mean_motion_dot": -2.28e-06,
        "meta_mean_motion_ddot": 0,
        "tle_line1": "1 42818U 17041A   25346.12684631 -.00000228  00000+0  00000+0 0  9998",
        "tle_line2": "2 42818   0.0182   4.6689 0002085 256.6606 190.9094  1.00273544 30949"
      },
      "geometry": {
        "type": "Point",
        "coordinates": [
          -138.46201180960216,
          -0.0254365333789315
        ]
      }
    },
    {
      "type": "Feature",
      "properties": {
        "norad_id": 42950,
        "name": "INTELSAT 37E (IS-37E)",
        "group": "intelsat",
        "lat": -0.034989052745141545,
        "lon": -121.9526750858039,
        "alt_km": 35773.524664678334,
        "timestamp": "2025-12-12T11:38:31.084164+00:00",
        "meta_object_name": "INTELSAT 37E (IS-37E)",
        "meta_object_id": "2017-059A",
        "meta_epoch": "2025-12-12T03:07:16.579200",
        "meta_mean_motion": 1.00272169,
        "meta_eccentricity": 0.0003108,
        "meta_inclination": 0.018,
        "meta_ra_of_asc_node": 347.1592,
        "meta_arg_of_pericenter": 269.5118,
        "meta_mean_anomaly": 213.2327,
        "meta_ephemeris_type": 0,
        "meta_classification_type": "U",
        "meta_norad_cat_id": 42950,
        "meta_element_set_no": 999,
        "meta_rev_at_epoch": 3019,
        "meta_bstar": 0,
        "meta_mean_motion_dot": -1.31e-06,
        "meta_mean_motion_ddot": 0,
        "tle_line1": "1 42950U 17059A   25346.13005300 -.00000131  00000+0  00000+0 0  9998",
        "tle_line2": "2 42950   0.0180 347.1592 0003108 269.5118 213.2327  1.00272169 30197"
      },
      "geometry": {
        "type": "Point",
        "coordinates": [
          -121.9526750858039,
          -0.034989052745141545
        ]
      }
    },
    {
      "type": "Feature",
      "properties": {
        "norad_id": 43632,
        "name": "AZERSPACE 2 (IS-38)",
        "group": "intelsat",
        "lat": -0.02738826878767271,
        "lon": -58.829734351507994,
        "alt_km": 35780.86686304982,
        "timestamp": "2025-12-12T11:38:31.084175+00:00",
        "meta_object_name": "AZERSPACE 2 (IS-38)",
        "meta_object_id": "2018-074A",
        "meta_epoch": "2025-12-11T06:30:38.803680",
        "meta_mean_motion": 1.00271658,
        "meta_eccentricity": 0.00014523,
        "meta_inclination": 0.0184,
        "meta_ra_of_asc_node": 0.4784,
        "meta_arg_of_pericenter": 266.8936,
        "meta_mean_anomaly": 315.6295,
        "meta_ephemeris_type": 0,
        "meta_classification_type": "U",
        "meta_norad_cat_id": 43632,
        "meta_element_set_no": 999,
        "meta_rev_at_epoch": 2656,
        "meta_bstar": 0,
        "meta_mean_motion_dot": 1.43e-06,
        "meta_mean_motion_ddot": 0,
        "tle_line1": "1 43632U 18074A   25345.27128245  .00000143  00000+0  00000+0 0  9994",
        "tle_line2": "2 43632   0.0184   0.4784 0001452 266.8936 315.6295  1.00271658 26568"
      },
      "geometry": {
        "type": "Point",
        "coordinates": [
          -58.829734351507994,
          -0.02738826878767271
        ]
      }
    },
    {
      "type": "Feature",
      "properties": {
        "norad_id": 43633,
        "name": "HORIZONS-3E",
        "group": "intelsat",
        "lat": -0.009579158941892185,
        "lon": 65.05592405974039,
        "alt_km": 35790.7972399462,
        "timestamp": "2025-12-12T11:38:31.084187+00:00",
        "meta_object_name": "HORIZONS-3E",
        "meta_object_id": "2018-074B",
        "meta_epoch": "2025-12-11T19:27:03.433824",
        "meta_mean_motion": 1.00268276,
        "meta_eccentricity": 0.0001075,
        "meta_inclination": 0.0429,
        "meta_ra_of_asc_node": 180.5458,
        "meta_arg_of_pericenter": 99.0829,
        "meta_mean_anomaly": 261.9041,
        "meta_ephemeris_type": 0,
        "meta_classification_type": "U",
        "meta_norad_cat_id": 43633,
        "meta_element_set_no": 999,
        "meta_rev_at_epoch": 2646,
        "meta_bstar": 0,
        "meta_mean_motion_dot": -2.3e-07,
        "meta_mean_motion_ddot": 0,
        "tle_line1": "1 43633U 18074B   25345.81045641 -.00000023  00000+0  00000+0 0  9991",
        "tle_line2": "2 43633   0.0429 180.5458 0001075  99.0829 261.9041  1.00268276 26460"
      },
      "geometry": {
        "type": "Point",
        "coordinates": [
          65.05592405974039,
          -0.009579158941892185
        ]
      }
    }
  ]
}